NORAD_CAT_ID,OBJECT_NAME,OBJECT_TYPE,EPOCH,MEAN_MOTION,ECCENTRICITY,INCLINATION,RA_OF_ASC_NODE,ARG_OF_PERICENTER,MEAN_ANOMALY,BSTAR,MEAN_MOTION_DOT,MEAN_MOTION_DDOT,TLE_LINE0,TLE_LINE1,TLE_LINE2,SEMIMAJOR_AXIS,PERIOD,APOGEE,PERIGEE,DECAYED
51756.0,STARLINK-3513,PAYLOAD,2024-07-12 13:27:52,15.08846568,0.0001307,53.2165,145.6509,93.4039,266.7103,0.00015284,2.146e-05,0.0,0 STARLINK-3513,1 51756U 22016AU  24194.56102644  .00002146  00000-0  15284-3 0  9999,2 51756  53.2165 145.6509 0001307  93.4039 266.7103 15.08846568133426,6917.86,95.437,540.629,538.821,0.0
51756.0,STARLINK-3513,PAYLOAD,2024-07-13 05:21:44,15.0883895,0.0001936,53.2185,142.68,123.6673,236.4504,1.8039e-05,-1e-08,0.0,0 STARLINK-3513,1 51756U 22016AU  24195.22343458 -.00000001  00000-0  18039-4 0  9994,2 51756  53.2185 142.6800 0001936 123.6673 236.4504 15.08838950133523,6917.884,95.438,541.088,538.409,0.0
51756.0,STARLINK-3513,PAYLOAD,2024-07-13 13:18:39,15.08849179,0.0001351,53.2166,141.1895,90.0164,270.0983,0.0001096,1.457e-05,0.0,0 STARLINK-3513,1 51756U 22016AU  24195.55462514  .00001457  00000-0  10960-3 0  9994,2 51756  53.2166 141.1895 0001351  90.0164 270.0983 15.08849179133578,6917.852,95.437,540.652,538.783,0.0
51756.0,STARLINK-3513,PAYLOAD,2024-07-14 03:37:09,15.08832495,0.000148,53.2174,138.5149,89.2665,270.8497,6.2126e-05,7.01e-06,0.0,0 STARLINK-3513,1 51756U 22016AU  24196.15080120  .00000701  00000-0  62126-4 0  9993,2 51756  53.2174 138.5149 0001480  89.2665 270.8497 15.08832495133669,6917.903,95.438,540.792,538.744,0.0
51756.0,STARLINK-3513,PAYLOAD,2024-07-14 13:09:27,15.08850353,0.000151,53.2181,136.7302,83.5644,276.552,0.000145,2.021e-05,0.0,0 STARLINK-3513,1 51756U 22016AU  24196.54822941  .00002021  00000-0  14500-3 0  9990,2 51756  53.2181 136.7302 0001510  83.5644 276.5520 15.08850353133726,6917.849,95.437,540.758,538.669,0.0
51756.0,STARLINK-3513,PAYLOAD,2024-07-15 05:03:18,15.08841842,0.0001361,53.2172,133.7553,86.7027,273.4121,8.59e-05,1.08e-05,0.0,0 STARLINK-3513,1 51756U 22016AU  24197.21063630  .00001080  00000-0  85900-4 0  9994,2 51756  53.2172 133.7553 0001361  86.7027 273.4121 15.08841842133822,6917.875,95.437,540.681,538.798,0.0
51756.0,STARLINK-3513,PAYLOAD,2024-07-15 13:00:13,15.08855307,0.0001366,53.2175,132.2696,89.559,270.5559,0.00015821,2.232e-05,0.0,0 STARLINK-3513,1 51756U 22016AU  24197.54182500  .00002232  00000-0  15821-3 0  9992,2 51756  53.2175 132.2696 0001366  89.5590 270.5559 15.08855307133877,6917.834,95.437,540.644,538.754,0.0
51756.0,STARLINK-3513,PAYLOAD,2024-07-16 04:54:05,15.08844984,0.0001478,53.2143,129.2904,103.8507,256.265,0.00020608,2.994e-05,0.0,0 STARLINK-3513,1 51756U 22016AU  24198.20423593  .00002994  00000-0  20608-3 0  9990,2 51756  53.2143 129.2904 0001478 103.8507 256.2650 15.08844984133975,6917.865,95.437,540.753,538.708,0.0
51756.0,STARLINK-3513,PAYLOAD,2024-07-17 12:41:47,15.08858452,0.0001685,53.2157,123.3439,101.0384,259.0798,0.00063397,9.821e-05,0.0,0 STARLINK-3513,1 51756U 22016AU  24199.52902734  .00009821  00000-0  63397-3 0  9993,2 51756  53.2157 123.3439 0001685 101.0384 259.0798 15.08858452134173,6917.824,95.436,540.855,538.523,0.0
51756.0,STARLINK-3513,PAYLOAD,2024-07-17 22:14:07,15.08836826,0.0001585,53.2152,121.5604,99.4784,260.6387,-4.9265e-05,-1.072e-05,0.0,0 STARLINK-3513,1 51756U 22016AU  24199.92647172 -.00001072  00000-0 -49265-4 0  9990,2 51756  53.2152 121.5604 0001585  99.4784 260.6387 15.08836826133166,6917.89,95.438,540.852,538.659,0.0
51756.0,STARLINK-3513,PAYLOAD,2024-07-18 04:35:40,15.08832197,0.0001562,53.2162,120.3721,94.7721,265.3449,0.0016316,0.00025769,0.0,0 STARLINK-3513,1 51756U 22016AU  24200.19143606  .00025769  00000-0  16316-2 0  9991,2 51756  53.2162 120.3721 0001562  94.7721 265.3449 15.08832197134279,6917.904,95.438,540.85,538.689,0.0
51756.0,STARLINK-3513,PAYLOAD,2024-07-18 22:04:54,15.08837981,0.0001434,53.2158,117.0977,100.1313,259.9841,0.00083432,0.00013014,0.0,0 STARLINK-3513,1 51756U 22016AU  24200.92008077  .00013014  00000-0  83432-3 0  9998,2 51756  53.2158 117.0977 0001434 100.1313 259.9841 15.08837981133312,6917.887,95.438,540.744,538.76,0.0
51756.0,STARLINK-3513,PAYLOAD,2024-07-19 01:15:41,15.0883527,0.0001629,53.2175,116.504,108.4272,251.6897,0.00048307,7.407e-05,0.0,0 STARLINK-3513,1 51756U 22016AU  24201.05256121  .00007407  00000-0  48307-3 0  9999,2 51756  53.2175 116.5040 0001629 108.4272 251.6897 15.08835270134407,6917.895,95.438,540.887,538.633,0.0
51756.0,STARLINK-3513,PAYLOAD,2024-07-19 21:55:42,15.08839458,0.0001474,53.217,112.6394,100.5497,259.5661,0.00029721,4.445e-05,0.0,0 STARLINK-3513,1 51756U 22016AU  24201.91368375  .00004445  00000-0  29721-3 0  9997,2 51756  53.2170 112.6394 0001474 100.5497 259.5661 15.08839458133464,6917.882,95.438,540.767,538.727,0.0
51756.0,STARLINK-3513,PAYLOAD,2024-07-20 01:06:28,15.08840519,0.0001327,53.2159,112.0476,76.6447,283.4694,0.00027934,4.161e-05,0.0,0 STARLINK-3513,1 51756U 22016AU  24202.04616447  .00004161  00000-0  27934-3 0  9997,2 51756  53.2159 112.0476 0001327  76.6447 283.4694 15.08840519134554,6917.879,95.438,540.662,538.826,0.0
51756.0,STARLINK-3513,PAYLOAD,2024-07-20 10:38:46,15.08854401,0.0001423,53.2176,110.265,89.8079,270.3076,0.00049507,7.603e-05,0.0,0 STARLINK-3513,1 51756U 22016AU  24202.44359875  .00007603  00000-0  49507-3 0  9994,2 51756  53.2176 110.2650 0001423  89.8079 270.3076 15.08854401134612,6917.836,95.437,540.686,538.717,0.0
51756.0,STARLINK-3513,PAYLOAD,2024-07-20 20:11:06,15.08828108,0.0001475,53.2171,108.483,108.0151,252.1002,-0.00014265,-2.557e-05,0.0,0 STARLINK-3513,1 51756U 22016AU  24202.84104752 -.00002557  00000-0 -14265-3 0  9998,2 51756  53.2171 108.4830 0001475 108.0151 252.1002 15.08828108134676,6917.917,95.438,540.802,538.761,0.0
51756.0,STARLINK-3513,PAYLOAD,2024-07-20 21:46:29,15.08830074,0.0001291,53.2171,108.1876,126.8661,233.245,-0.00011921,-2.184e-05,0.0,0 STARLINK-3513,1 51756U 22016AU  24202.90728598 -.00002184  00000-0 -11921-3 0  9997,2 51756  53.2171 108.1876 0001291 126.8661 233.2450 15.08830074133618,6917.911,95.438,540.669,538.883,0.0
51756.0,STARLINK-3513,PAYLOAD,2024-07-21 00:57:15,15.08830543,0.0001268,53.217,107.594,128.4257,231.6849,-8.691e-05,-1.67e-05,0.0,0 STARLINK-3513,1 51756U 22016AU  24203.03976647 -.00001670  00000-0 -86910-4 0  9992,2 51756  53.2170 107.5940 0001268 128.4257 231.6849 15.08830543133632,6917.909,95.438,540.651,538.897,0.0
51756.0,STARLINK-3513,PAYLOAD,2024-07-21 21:37:16,15.08843797,0.0001223,53.2161,103.7273,126.1659,233.9446,0.00030401,4.554e-05,0.0,0 STARLINK-3513,1 51756U 22016AU  24203.90088607  .00004554  00000-0  30401-3 0  9993,2 51756  53.2161 103.7273 0001223 126.1659 233.9446 15.08843797133768,6917.869,95.437,540.58,538.888,0.0
51756.0,STARLINK-3513,PAYLOAD,2024-07-21 23:12:39,15.0884663,0.0001228,53.2152,103.4296,125.6151,234.4955,0.00039347,5.981e-05,0.0,0 STARLINK-3513,1 51756U 22016AU  24203.96712569  .00005981  00000-0  39347-3 0  9993,2 51756  53.2152 103.4296 0001228 125.6151 234.4955 15.08846630134846,6917.86,95.437,540.575,538.876,0.0
51756.0,STARLINK-3513,PAYLOAD,2024-07-22 23:03:26,15.08852617,0.0001145,53.2145,98.9673,116.8443,243.2666,0.00043704,6.677e-05,0.0,0 STARLINK-3513,1 51756U 22016AU  24204.96072366  .00006677  00000-0  43704-3 0  9993,2 51756  53.2145  98.9673 0001145 116.8443 243.2666 15.08852617133926,6917.842,95.437,540.499,538.915,0.0
51756.0,STARLINK-3513,PAYLOAD,2024-07-23 00:38:49,15.0885448,0.0001122,53.2145,98.67,115.7839,244.3269,0.00046838,7.177e-05,0.0,0 STARLINK-3513,1 51756U 22016AU  24205.02696279  .00007177  00000-0  46838-3 0  9993,2 51756  53.2145  98.6700 0001122 115.7839 244.3269 15.08854480135008,6917.836,95.437,540.477,538.925,0.0
51756.0,STARLINK-3513,PAYLOAD,2024-07-23 10:11:07,15.08863658,0.0001146,53.2152,96.8828,93.3529,266.7594,0.00059393,9.183e-05,0.0,0 STARLINK-3513,1 51756U 22016AU  24205.42439797  .00009183  00000-0  59393-3 0  9996,2 51756  53.2152  96.8828 0001146  93.3529 266.7594 15.08863658133992,6917.808,95.436,540.466,538.88,0.0
51756.0,STARLINK-3513,PAYLOAD,2024-07-23 16:32:41,15.08842857,0.0002206,53.2138,95.6975,90.8462,269.2783,7.7667e-05,9.48e-06,0.0,0 STARLINK-3513,1 51756U 22016AU  24205.68936614  .00000948  00000-0  77667-4 0  9999,2 51756  53.2138  95.6975 0002206  90.8462 269.2783 15.08842857135103,6917.872,95.437,541.263,538.211,0.0
51756.0,STARLINK-3513,PAYLOAD,2024-07-23 22:54:14,15.08827249,0.0001187,53.2151,94.5071,93.4383,266.6744,-0.00028954,-4.891e-05,0.0,0 STARLINK-3513,1 51756U 22016AU  24205.95432916 -.00004891  00000-0 -28954-3 0  9992,2 51756  53.2151  94.5071 0001187  93.4383 266.6744 15.08827249134072,6917.919,95.438,540.606,538.963,0.0
51756.0,STARLINK-3513,PAYLOAD,2024-07-24 02:05:00,15.08829122,0.0001578,53.2144,93.91,99.9403,260.1767,-9.3675e-05,-1.778e-05,0.0,0 STARLINK-3513,1 51756U 22016AU  24206.08681089 -.00001778  00000-0 -93675-4 0  9998,2 51756  53.2144  93.9100 0001578  99.9403 260.1767 15.08829122135165,6917.914,95.438,540.87,538.687,0.0
51756.0,STARLINK-3513,PAYLOAD,2024-07-24 22:45:01,15.08847074,0.0001152,53.2153,90.0446,102.4064,257.7057,0.00083932,0.00013098,0.0,0 STARLINK-3513,1 51756U 22016AU  24206.94793168  .00013098  00000-0  83932-3 0  9995,2 51756  53.2153  90.0446 0001152 102.4064 257.7057 15.08847074134223,6917.859,95.437,540.521,538.927,0.0
51756.0,STARLINK-3513,PAYLOAD,2024-07-25 22:35:48,15.08846833,0.0001114,53.2153,85.5818,68.3597,291.7514,0.00033598,5.064e-05,0.0,0 STARLINK-3513,1 51756U 22016AU  24207.94153101  .00005064  00000-0  33598-3 0  9990,2 51756  53.2153  85.5818 0001114  68.3597 291.7514 15.08846833134378,6917.86,95.437,540.495,538.954,0.0
51756.0,STARLINK-3513,PAYLOAD,2024-07-26 16:05:02,15.08849609,0.0001173,53.2154,82.3144,89.1782,270.9344,0.00030604,4.587e-05,0.0,0 STARLINK-3513,1 51756U 22016AU  24208.67016869  .00004587  00000-0  30604-3 0  9994,2 51756  53.2154  82.3144 0001173  89.1782 270.9344 15.08849609134484,6917.851,95.437,540.527,538.905,0.0
